NORAD_CAT_ID,OBJECT_NAME,OBJECT_TYPE,EPOCH,MEAN_MOTION,ECCENTRICITY,INCLINATION,RA_OF_ASC_NODE,ARG_OF_PERICENTER,MEAN_ANOMALY,BSTAR,MEAN_MOTION_DOT,MEAN_MOTION_DDOT,TLE_LINE0,TLE_LINE1,TLE_LINE2,SEMIMAJOR_AXIS,PERIOD,APOGEE,PERIGEE,DECAYED
56492.0,STARLINK-5846,PAYLOAD,2023-10-14 09:25:09,15.69908004,0.0003262,69.9982,164.8094,263.0821,97.0003,-1.5587e-05,-2.085e-05,0.0,0 STARLINK-5846,1 56492U 23064AW  23287.39246991 -.00002085  00000-0 -15587-4 0  9993,2 56492  69.9982 164.8094 0003262 263.0821  97.0003 15.69908004 24960,6737.297,91.725,361.36,356.964,0.0
56492.0,STARLINK-5846,PAYLOAD,2023-10-14 18:35:39,15.6991555,0.0003654,69.9991,163.7327,262.4219,97.6562,-6.0083e-06,-9.35e-06,0.0,0 STARLINK-5846,1 56492U 23064AW  23287.77476743 -.00000935  00000-0 -60083-5 0  9999,2 56492  69.9991 163.7327 0003654 262.4219  97.6562 15.69915550 25024,6737.276,91.725,361.602,356.679,0.0
56492.0,STARLINK-5846,PAYLOAD,2023-10-15 02:14:24,15.69931484,0.0003406,69.9987,162.8389,262.7175,97.3634,2.544e-05,2.848e-05,0.0,0 STARLINK-5846,1 56492U 23064AW  23288.09334318  .00002848  00000-0  25440-4 0  9996,2 56492  69.9987 162.8389 0003406 262.7175  97.3634 15.69931484 25072,6737.23,91.724,361.39,356.8,0.0
56492.0,STARLINK-5846,PAYLOAD,2023-10-15 22:07:11,15.69938394,0.0003144,69.9984,160.5087,266.3054,93.7782,7.6331e-05,8.98e-05,0.0,0 STARLINK-5846,1 56492U 23064AW  23288.92166162  .00008980  00000-0  76331-4 0  9996,2 56492  69.9984 160.5087 0003144 266.3054  93.7782 15.69938394 24850,6737.21,91.723,361.193,356.957,0.0
56492.0,STARLINK-5846,PAYLOAD,2023-10-16 01:10:42,15.69916353,0.0003535,69.9984,160.1511,264.7971,95.2822,-8.0933e-06,-1.186e-05,0.0,0 STARLINK-5846,1 56492U 23064AW  23289.04909868 -.00001186  00000-0 -80933-5 0  9995,2 56492  69.9984 160.1511 0003535 264.7971  95.2822 15.69916353 25227,6737.273,91.725,361.52,356.757,0.0
56492.0,STARLINK-5846,PAYLOAD,2023-10-16 14:56:28,15.69929732,0.0003777,69.9981,158.5376,259.7815,100.2955,3.182e-05,3.616e-05,0.0,0 STARLINK-5846,1 56492U 23064AW  23289.62254644  .00003616  00000-0  31820-4 0  9992,2 56492  69.9981 158.5376 0003777 259.7815 100.2955 15.69929732 24962,6737.235,91.724,361.645,356.555,0.0
56492.0,STARLINK-5846,PAYLOAD,2023-10-16 16:28:13,15.69936361,0.0003726,69.9977,158.3594,259.7098,100.3678,5.963e-05,6.967e-05,0.0,0 STARLINK-5846,1 56492U 23064AW  23289.68626176  .00006967  00000-0  59630-4 0  9992,2 56492  69.9977 158.3594 0003726 259.7098 100.3678 15.69936361 25324,6737.216,91.723,361.591,356.571,0.0
56492.0,STARLINK-5846,PAYLOAD,2023-10-18 00:35:00,15.69932351,0.0003757,69.998,154.5992,268.4191,91.6574,4.0279e-05,4.635e-05,0.0,0 STARLINK-5846,1 56492U 23064AW  23291.02431238  .00004635  00000-0  40279-4 0  9995,2 56492  69.9980 154.5992 0003757 268.4191  91.6574 15.69932351 25189,6737.228,91.724,361.624,356.561,0.0
56492.0,STARLINK-5846,PAYLOAD,2023-10-18 08:13:46,15.69917942,0.0003392,69.9975,153.7035,269.8728,90.2079,2.0407e-06,3.3e-07,0.0,0 STARLINK-5846,1 56492U 23064AW  23291.34290159  .00000033  00000-0  20407-5 0  9995,2 56492  69.9975 153.7035 0003392 269.8728  90.2079 15.69917942 25586,6737.269,91.725,361.419,356.848,0.0
56492.0,STARLINK-5846,PAYLOAD,2023-10-19 14:48:49,15.69922044,0.0003584,69.9975,150.1197,271.2749,88.8036,6.0928e-05,7.119e-05,0.0,0 STARLINK-5846,1 56492U 23064AW  23292.61723471  .00007119  00000-0  60928-4 0  9997,2 56492  69.9975 150.1197 0003584 271.2749  88.8036 15.69922044 25438,6737.257,91.724,361.537,356.707,0.0
56492.0,STARLINK-5846,PAYLOAD,2023-10-19 22:27:34,15.69937784,0.0003848,69.997,149.2249,268.6626,91.4129,6.89e-06,6.16e-06,0.0,0 STARLINK-5846,1 56492U 23064AW  23292.93581064  .00000616  00000-0  68900-5 0  9996,2 56492  69.9970 149.2249 0003848 268.6626  91.4129 15.69937784 25482,6737.212,91.723,361.669,356.485,0.0
56492.0,STARLINK-5846,PAYLOAD,2023-10-19 23:59:20,15.69913225,0.0003333,69.9987,149.0454,255.0773,105.0054,-1.9244e-06,-4.44e-06,0.0,0 STARLINK-5846,1 56492U 23064AW  23292.99954424 -.00000444  00000-0 -19244-5 0  9994,2 56492  69.9987 149.0454 0003333 255.0773 105.0054 15.69913225 25841,6737.282,91.725,361.393,356.902,0.0
56492.0,STARLINK-5846,PAYLOAD,2023-10-20 13:45:07,15.69914281,0.0003583,69.999,147.4316,261.3397,98.7393,5.6551e-05,6.59e-05,0.0,0 STARLINK-5846,1 56492U 23064AW  23293.57299990  .00006590  00000-0  56551-4 0  9996,2 56492  69.9990 147.4316 0003583 261.3397  98.7393 15.69914281 25581,6737.279,91.725,361.558,356.73,0.0
56492.0,STARLINK-5846,PAYLOAD,2023-10-21 00:27:21,15.69939873,0.0002763,70.0005,146.1787,255.0023,105.0867,6.3999e-05,7.494e-05,0.0,0 STARLINK-5846,1 56492U 23064AW  23294.01899688  .00007494  00000-0  63999-4 0  9994,2 56492  70.0005 146.1787 0002763 255.0023 105.0867 15.69939873 26004,6737.206,91.723,360.933,357.21,0.0
56492.0,STARLINK-5846,PAYLOAD,2023-10-21 14:13:06,15.69943412,0.0002396,70.0008,144.5673,257.408,102.6847,5.2116e-05,6.063e-05,0.0,0 STARLINK-5846,1 56492U 23064AW  23294.59244207  .00006063  00000-0  52116-4 0  9998,2 56492  70.0008 144.5673 0002396 257.4080 102.6847 15.69943412 25749,6737.196,91.723,360.675,357.447,0.0
56492.0,STARLINK-5846,PAYLOAD,2023-10-21 20:20:08,15.69916192,0.0003084,69.9995,143.8495,274.913,85.1714,-1.3988e-05,-1.893e-05,0.0,0 STARLINK-5846,1 56492U 23064AW  23294.84731822 -.00001893  00000-0 -13988-4 0  9992,2 56492  69.9995 143.8495 0003084 274.9130  85.1714 15.69916192 26137,6737.274,91.725,361.217,357.061,0.0
56492.0,STARLINK-5846,PAYLOAD,2023-10-21 21:51:53,15.69916019,0.0003356,69.9996,143.6695,265.7737,94.3075,-2.3104e-05,-2.989e-05,0.0,0 STARLINK-5846,1 56492U 23064AW  23294.91103334 -.00002989  00000-0 -23104-4 0  9999,2 56492  69.9996 143.6695 0003356 265.7737  94.3075 15.69916019 25792,6737.274,91.725,361.4,356.878,0.0
56492.0,STARLINK-5846,PAYLOAD,2023-10-21 23:23:38,15.69909708,0.0003129,69.9995,143.4902,269.5608,90.523,-3.547e-05,-4.473e-05,0.0,0 STARLINK-5846,1 56492U 23064AW  23294.97475482 -.00004473  00000-0 -35470-4 0  9990,2 56492  69.9995 143.4902 0003129 269.5608  90.5230 15.69909708 26156,6737.292,91.725,361.265,357.049,0.0
56492.0,STARLINK-5846,PAYLOAD,2023-10-22 17:44:53,15.69391342,0.0006956,70.0012,141.343,244.1311,115.9168,-0.0014756,-0.00170521,0.0,0 STARLINK-5846,1 56492U 23064AW  23295.73951278 -.00170521  00000-0 -14756-2 0  9997,2 56492  70.0012 141.3430 0006956 244.1311 115.9168 15.69391342 26277,6738.776,91.755,365.328,355.953,0.0
56492.0,STARLINK-5846,PAYLOAD,2023-10-23 06:00:00,15.67646444,0.0003634,69.9993,139.911,273.0195,87.4516,-0.009461,-0.00942335,0.0,0 STARLINK-5846,1 56492U 23064AW  23296.25001157 -.00942335  00000-0 -94610-2 0  9994,2 56492  69.9993 139.9110 0003634 273.0195  87.4516 15.67646444 26354,6743.775,91.857,368.091,363.19,0.0
56492.0,STARLINK-5846,PAYLOAD,2023-10-23 22:00:00,15.66320671,0.0003446,69.9997,138.0447,275.5185,244.5676,-0.009444,-0.00895538,0.0,0 STARLINK-5846,1 56492U 23064AW  23296.91667824 -.00895538  00000-0 -94440-2 0  9999,2 56492  69.9997 138.0447 0003446 275.5185 244.5676 15.66320671 26463,6747.58,91.935,371.77,367.12,0.0
56492.0,STARLINK-5846,PAYLOAD,2023-10-24 14:00:01,15.65037711,0.0003567,69.9996,136.1824,268.1007,48.4515,-0.010211,-0.00917556,0.0,0 STARLINK-5846,1 56492U 23064AW  23297.58334491 -.00917556  00000-0 -10211-1 0  9992,2 56492  69.9996 136.1824 0003567 268.1007  48.4515 15.65037711 26568,6751.267,92.011,375.54,370.724,0.0
56492.0,STARLINK-5846,PAYLOAD,2023-10-24 16:00:01,15.64888181,0.0003539,69.9994,135.9497,271.6493,154.3072,-0.010621,-0.00945899,0.0,0 STARLINK-5846,1 56492U 23064AW  23297.66668981 -.00945899  00000-0 -10621-1 0  9991,2 56492  69.9994 135.9497 0003539 271.6493 154.3072 15.64888181  5944,6751.697,92.019,375.952,371.173,0.0
56492.0,STARLINK-5846,PAYLOAD,2023-10-25 14:00:01,15.63075836,0.0003373,69.9991,133.395,269.2785,276.1269,-0.010884,-0.00905865,0.0,0 STARLINK-5846,1 56492U 23064AW  23298.58334491 -.00905865  00000-0 -10884-1 0  9999,2 56492  69.9991 133.3950 0003373 269.2785 276.1269 15.63075836  5990,6756.915,92.126,381.059,376.501,0.0
56492.0,STARLINK-5846,PAYLOAD,2023-10-26 06:00:00,15.61766004,0.0003523,69.9985,131.541,271.7567,62.3187,-0.011789,-0.00929888,0.0,0 STARLINK-5846,1 56492U 23064AW  23299.25001157 -.00929888  00000-0 -11789-1 0  9990,2 56492  69.9985 131.5410 0003523 271.7567  62.3187 15.61766004 26828,6760.693,92.203,384.94,380.176,0.0
56492.0,STARLINK-5846,PAYLOAD,2023-10-26 14:00:01,15.61129084,0.0003496,69.9985,130.6157,271.524,135.6914,-0.012003,-0.00924196,0.0,0 STARLINK-5846,1 56492U 23064AW  23299.58334491 -.00924196  00000-0 -12003-1 0  9993,2 56492  69.9985 130.6157 0003496 271.5240 135.6914 15.61129084  6046,6762.531,92.241,386.761,382.032,0.0
56492.0,STARLINK-5846,PAYLOAD,2023-10-26 16:00:00,15.60977681,0.0003387,69.9984,130.3845,272.463,242.9195,-0.012471,-0.00951791,0.0,0 STARLINK-5846,1 56492U 23064AW  23299.66667824 -.00951791  00000-0 -12471-1 0  9991,2 56492  69.9984 130.3845 0003387 272.4630 242.9195 15.60977681  6055,6762.969,92.25,387.124,382.543,0.0
56492.0,STARLINK-5846,PAYLOAD,2023-10-29 21:56:48,15.56166419,0.0002712,69.9962,121.4208,270.4542,89.6336,-0.0040589,-0.00275758,0.0,0 STARLINK-5846,1 56492U 23064AW  23302.91445004 -.00275758  00000-0 -40589-2 0  9992,2 56492  69.9962 121.4208 0002712 270.4542  89.6336 15.56166419 27393,6776.901,92.535,400.604,396.928,0.0
56492.0,STARLINK-5846,PAYLOAD,2023-10-30 05:40:31,15.55334581,0.000235,69.9962,120.5376,255.1777,104.9151,-0.0047894,-0.00314016,0.0,0 STARLINK-5846,1 56492U 23064AW  23303.23647016 -.00314016  00000-0 -47894-2 0  9992,2 56492  69.9962 120.5376 0002350 255.1777 104.9151 15.55334581 27445,6779.317,92.585,402.775,399.589,0.0
56492.0,STARLINK-5846,PAYLOAD,2023-10-30 22:00:00,15.52611366,0.000342,69.9983,118.6659,279.9993,287.0647,-0.015523,-0.00873642,0.0,0 STARLINK-5846,1 56492U 23064AW  23303.91667824 -.00873642  00000-0 -15523-1 0  9994,2 56492  69.9983 118.6659 0003420 279.9993 287.0647 15.52611366 27554,6787.242,92.747,411.428,406.786,0.0
